{
  "type": "FeatureCollection",
  "features": [
    {
      "type": "Feature",
      "properties": {
        "norad_id": 41948,
        "name": "CARTOSAT-2D",
        "group": "resource",
        "lat": -31.192391157269277,
        "lon": -129.9883565566382,
        "alt_km": 514.3411611922393,
        "timestamp": "2025-12-23T05:02:11.681071+00:00",
        "meta_object_name": "CARTOSAT-2D",
        "meta_object_id": "2017-008A",
        "meta_epoch": "2025-12-23T02:31:42.927744",
        "meta_mean_motion": 15.19164603,
        "meta_eccentricity": 0.0005267,
        "meta_inclination": 97.4372,
        "meta_ra_of_asc_node": 54.4449,
        "meta_arg_of_pericenter": 123.7158,
        "meta_mean_anomaly": 236.4579,
        "meta_ephemeris_type": 0,
        "meta_classification_type": "U",
        "meta_norad_cat_id": 41948,
        "meta_element_set_no": 999,
        "meta_rev_at_epoch": 49084,
        "meta_bstar": 0.00027119,
        "meta_mean_motion_dot": 5.636e-05,
        "meta_mean_motion_ddot": 0,
        "tle_line1": "1 41948U 17008A   25357.10535796  .00005636  00000+0  27119-3 0  9992",
        "tle_line2": "2 41948  97.4372  54.4449 0005267 123.7158 236.4579 15.19164603490844"
      },
      "geometry": {
        "type": "Point",
        "coordinates": [
          -129.9883565566382,
          -31.192391157269277
        ]
      }
    },
    {
      "type": "Feature",
      "properties": {
        "norad_id": 42063,
        "name": "SENTINEL-2B",
        "group": "resource",
        "lat": 79.6935985248328,
        "lon": 13.478174096875712,
        "alt_km": 780.7685248712778,
        "timestamp": "2025-12-23T05:02:11.681082+00:00",
        "meta_object_name": "SENTINEL-2B",
        "meta_object_id": "2017-013A",
        "meta_epoch": "2025-12-22T23:36:33.558336",
        "meta_mean_motion": 14.30813717,
        "meta_eccentricity": 0.00011922,
        "meta_inclination": 98.5708,
        "meta_ra_of_asc_node": 69.2858,
        "meta_arg_of_pericenter": 92.4827,
        "meta_mean_anomaly": 267.6492,
        "meta_ephemeris_type": 0,
        "meta_classification_type": "U",
        "meta_norad_cat_id": 42063,
        "meta_element_set_no": 999,
        "meta_rev_at_epoch": 45944,
        "meta_bstar": -1.017062e-06,
        "meta_mean_motion_dot": -4.6e-07,
        "meta_mean_motion_ddot": 0,
        "tle_line1": "1 42063U 17013A   25356.98372174 -.00000046  00000+0 -10171-5 0  9995",
        "tle_line2": "2 42063  98.5708  69.2858 0001192  92.4827 267.6492 14.30813717459444"
      },
      "geometry": {
        "type": "Point",
        "coordinates": [
          13.478174096875712,
          79.6935985248328
        ]
      }
    },
    {
      "type": "Feature",
      "properties": {
        "norad_id": 42767,
        "name": "CARTOSAT-2E",
        "group": "resource",
        "lat": 58.71559831768087,
        "lon": -112.89742561280381,
        "alt_km": 501.65807031453915,
        "timestamp": "2025-12-23T05:02:11.681092+00:00",
        "meta_object_name": "CARTOSAT-2E",
        "meta_object_id": "2017-036C",
        "meta_epoch": "2025-12-22T23:45:58.273920",
        "meta_mean_motion": 15.19292183,
        "meta_eccentricity": 0.00027281,
        "meta_inclination": 97.454,
        "meta_ra_of_asc_node": 54.4428,
        "meta_arg_of_pericenter": 190.0907,
        "meta_mean_anomaly": 170.0273,
        "meta_ephemeris_type": 0,
        "meta_classification_type": "U",
        "meta_norad_cat_id": 42767,
        "meta_element_set_no": 999,
        "meta_rev_at_epoch": 47139,
        "meta_bstar": 0.00024445515,
        "meta_mean_motion_dot": 5.091e-05,
        "meta_mean_motion_ddot": 0,
        "tle_line1": "1 42767U 17036C   25356.99025780  .00005091  00000+0  24446-3 0  9991",
        "tle_line2": "2 42767  97.4540  54.4428 0002728 190.0907 170.0273 15.19292183471394"
      },
      "geometry": {
        "type": "Point",
        "coordinates": [
          -112.89742561280381,
          58.71559831768087
        ]
      }
    },
    {
      "type": "Feature",
      "properties": {
        "norad_id": 42920,
        "name": "FORMOSAT-5",
        "group": "resource",
        "lat": 58.855952988784075,
        "lon": -94.80005872234133,
        "alt_km": 723.2143435587523,
        "timestamp": "2025-12-23T05:02:11.681101+00:00",
        "meta_object_name": "FORMOSAT-5",
        "meta_object_id": "2017-049A",
        "meta_epoch": "2025-12-22T21:51:47.146176",
        "meta_mean_motion": 14.50766204,
        "meta_eccentricity": 0.00098221,
        "meta_inclination": 98.244,
        "meta_ra_of_asc_node": 71.0253,
        "meta_arg_of_pericenter": 266.7946,
        "meta_mean_anomaly": 93.2125,
        "meta_ephemeris_type": 0,
        "meta_classification_type": "U",
        "meta_norad_cat_id": 42920,
        "meta_element_set_no": 999,
        "meta_rev_at_epoch": 44111,
        "meta_bstar": 6.728885e-05,
        "meta_mean_motion_dot": 2.21e-06,
        "meta_mean_motion_ddot": 0,
        "tle_line1": "1 42920U 17049A   25356.91096234  .00000221  00000+0  67289-4 0  9993",
        "tle_line2": "2 42920  98.2440  71.0253 0009822 266.7946  93.2125 14.50766204441113"
      },
      "geometry": {
        "type": "Point",
        "coordinates": [
          -94.80005872234133,
          58.855952988784075
        ]
      }
    },
    {
      "type": "Feature",
      "properties": {
        "norad_id": 42969,
        "name": "SENTINEL-5P",
        "group": "resource",
        "lat": 55.72980588771535,
        "lon": -77.40786026419808,
        "alt_km": 821.0082306940312,
        "timestamp": "2025-12-23T05:02:11.681112+00:00",
        "meta_object_name": "SENTINEL-5P",
        "meta_object_id": "2017-064A",
        "meta_epoch": "2025-12-22T20:18:42.950880",
        "meta_mean_motion": 14.19519853,
        "meta_eccentricity": 0.00010225,
        "meta_inclination": 98.78,
        "meta_ra_of_asc_node": 295.3414,
        "meta_arg_of_pericenter": 91.3711,
        "meta_mean_anomaly": 268.7582,
        "meta_ephemeris_type": 0,
        "meta_classification_type": "U",
        "meta_norad_cat_id": 42969,
        "meta_element_set_no": 999,
        "meta_rev_at_epoch": 42454,
        "meta_bstar": 5.1443237e-05,
        "meta_mean_motion_dot": 6.4e-07,
        "meta_mean_motion_ddot": 0,
        "tle_line1": "1 42969U 17064A   25356.84633045  .00000064  00000+0  51443-4 0  9992",
        "tle_line2": "2 42969  98.7800 295.3414 0001022  91.3711 268.7582 14.19519853424542"
      },
      "geometry": {
        "type": "Point",
        "coordinates": [
          -77.40786026419808,
          55.72980588771535
        ]
      }
    },
    {
      "type": "Feature",
      "properties": {
        "norad_id": 42987,
        "name": "SKYSAT-C11",
        "group": "resource",
        "lat": -47.166488864192246,
        "lon": 143.03917503589545,
        "alt_km": 430.4658721798778,
        "timestamp": "2025-12-23T05:02:11.681122+00:00",
        "meta_object_name": "SKYSAT-C11",
        "meta_object_id": "2017-068A",
        "meta_epoch": "2025-12-22T19:55:58.994688",
        "meta_mean_motion": 15.47855461,
        "meta_eccentricity": 0.000117,
        "meta_inclination": 97.4148,
        "meta_ra_of_asc_node": 134.575,
        "meta_arg_of_pericenter": 96.9665,
        "meta_mean_anomaly": 263.1718,
        "meta_ephemeris_type": 0,
        "meta_classification_type": "U",
        "meta_norad_cat_id": 42987,
        "meta_element_set_no": 999,
        "meta_rev_at_epoch": 45587,
        "meta_bstar": 0.00044558877,
        "meta_mean_motion_dot": 0.00023113,
        "meta_mean_motion_ddot": 0,
        "tle_line1": "1 42987U 17068A   25356.83054392  .00023113  00000+0  44559-3 0  9996",
        "tle_line2": "2 42987  97.4148 134.5750 0001170  96.9665 263.1718 15.47855461455873"
      },
      "geometry": {
        "type": "Point",
        "coordinates": [
          143.03917503589545,
          -47.166488864192246
        ]
      }
    },
    {
      "type": "Feature",
      "properties": {
        "norad_id": 42988,
        "name": "SKYSAT-C10",
        "group": "resource",
        "lat": 9.851056298763721,
        "lon": -50.61078324142357,
        "alt_km": 471.08342258216635,
        "timestamp": "2025-12-23T05:02:11.681133+00:00",
        "meta_object_name": "SKYSAT-C10",
        "meta_object_id": "2017-068B",
        "meta_epoch": "2025-12-22T22:01:42.640032",
        "meta_mean_motion": 15.32267992,
        "meta_eccentricity": 0.00053671,
        "meta_inclination": 97.4268,
        "meta_ra_of_asc_node": 127.7984,
        "meta_arg_of_pericenter": 75.8896,
        "meta_mean_anomaly": 284.2942,
        "meta_ephemeris_type": 0,
        "meta_classification_type": "U",
        "meta_norad_cat_id": 42988,
        "meta_element_set_no": 999,
        "meta_rev_at_epoch": 45535,
        "meta_bstar": 0.00039031943,
        "meta_mean_motion_dot": 0.00012093,
        "meta_mean_motion_ddot": 0,
        "tle_line1": "1 42988U 17068B   25356.91785463  .00012093  00000+0  39032-3 0  9991",
        "tle_line2": "2 42988  97.4268 127.7984 0005367  75.8896 284.2942 15.32267992455350"
      },
      "geometry": {
        "type": "Point",
        "coordinates": [
          -50.61078324142357,
          9.851056298763721
        ]
      }
    }
  ]
}